start=new Date('2023-03-12T00:00:00.000Z').valueOf();
sats=[{"CLASSIFICATION_TYPE":"U","SITE":"AFETR","CENTER_NAME":"EARTH","REV_AT_EPOCH":"7345","GP_ID":"227888593","EPHEMERIS_TYPE":"0","OBJECT_NAME":"STARLINK-3120","OBJECT_ID":"2021-104M","TLE_LINE1":"1 49419U 21104M   23070.60626359  .00018787  00000-0  11953-2 0  9996","TLE_LINE2":"2 49419  53.2146 100.6495 0001778 103.9581 256.1609 15.08841276 73455","REF_FRAME":"TEME","COUNTRY_CODE":"US","EPOCH":"2023-03-11T14:33:01.174176","BSTAR":"0.00119530000000","INCLINATION":"53.2146","ECCENTRICITY":"0.00017780","OBJECT_TYPE":"PAYLOAD","PERIAPSIS":"538.511","MEAN_MOTION_DDOT":"0.0000000000000","LAUNCH_DATE":"2021-11-13","MEAN_MOTION":"15.08841276","PERIOD":"95.437","RCS_SIZE":"LARGE","DECAY_DATE":null,"ELEMENT_SET_NO":"999","ARG_OF_PERICENTER":"103.9581","FILE":"3857847","MEAN_ANOMALY":"256.1609","APOAPSIS":"540.971","RA_OF_ASC_NODE":"100.6495","MEAN_ELEMENT_THEORY":"SGP4","TIME_SYSTEM":"UTC","MEAN_MOTION_DOT":"0.00018787","NORAD_CAT_ID":"49419","SEMIMAJOR_AXIS":"6917.876"},{"SEMIMAJOR_AXIS":"6917.884","NORAD_CAT_ID":"49420","MEAN_MOTION_DOT":"0.00027038","TIME_SYSTEM":"UTC","MEAN_ELEMENT_THEORY":"SGP4","RA_OF_ASC_NODE":"100.9151","APOAPSIS":"540.636","MEAN_ANOMALY":"280.1528","FILE":"3857581","ELEMENT_SET_NO":"999","ARG_OF_PERICENTER":"79.9608","DECAY_DATE":null,"RCS_SIZE":"LARGE","PERIOD":"95.438","MEAN_MOTION":"15.08838711","LAUNCH_DATE":"2021-11-13","MEAN_MOTION_DDOT":"0.0000000000000","PERIAPSIS":"538.863","OBJECT_TYPE":"PAYLOAD","ECCENTRICITY":"0.00012810","INCLINATION":"53.2147","BSTAR":"0.00171050000000","EPOCH":"2023-03-11T13:08:14.343936","COUNTRY_CODE":"US","REF_FRAME":"TEME","TLE_LINE2":"2 49420  53.2147 100.9151 0001281  79.9608 280.1528 15.08838711 73447","TLE_LINE1":"1 49420U 21104N   23070.54738824  .00027038  00000-0  17105-2 0  9996","OBJECT_ID":"2021-104N","EPHEMERIS_TYPE":"0","OBJECT_NAME":"STARLINK-3110","GP_ID":"227856282","REV_AT_EPOCH":"7344","CENTER_NAME":"EARTH","SITE":"AFETR","CLASSIFICATION_TYPE":"U"},{"RA_OF_ASC_NODE":"100.6872","MEAN_MOTION_DOT":"0.00020450","NORAD_CAT_ID":"49421","TIME_SYSTEM":"UTC","SEMIMAJOR_AXIS":"6917.891","MEAN_ELEMENT_THEORY":"SGP4","RCS_SIZE":"LARGE","DECAY_DATE":null,"FILE":"3857847","MEAN_ANOMALY":"257.5058","APOAPSIS":"540.740","ARG_OF_PERICENTER":"102.6093","ELEMENT_SET_NO":"999","PERIAPSIS":"538.773","MEAN_MOTION_DDOT":"0.0000000000000","MEAN_MOTION":"15.08836441","PERIOD":"95.438","LAUNCH_DATE":"2021-11-13","BSTAR":"0.00129940000000","INCLINATION":"53.2145","ECCENTRICITY":"0.00014220","OBJECT_TYPE":"PAYLOAD","COUNTRY_CODE":"US","REF_FRAME":"TEME","EPOCH":"2023-03-11T14:23:48.243552","TLE_LINE1":"1 49421U 21104P   23070.59986393  .00020450  00000-0  12994-2 0  9990","TLE_LINE2":"2 49421  53.2145 100.6872 0001422 102.6093 257.5058 15.08836441 73457","EPHEMERIS_TYPE":"0","OBJECT_NAME":"STARLINK-3112","OBJECT_ID":"2021-104P","GP_ID":"227887592","CLASSIFICATION_TYPE":"U","CENTER_NAME":"EARTH","REV_AT_EPOCH":"7345","SITE":"AFETR"},{"APOAPSIS":"541.295","MEAN_ANOMALY":"280.3885","FILE":"3857581","ELEMENT_SET_NO":"999","ARG_OF_PERICENTER":"79.7354","DECAY_DATE":null,"RCS_SIZE":"LARGE","SEMIMAJOR_AXIS":"6917.916","NORAD_CAT_ID":"49422","MEAN_MOTION_DOT":"0.00004085","TIME_SYSTEM":"UTC","MEAN_ELEMENT_THEORY":"SGP4","RA_OF_ASC_NODE":"101.2286","OBJECT_TYPE":"PAYLOAD","ECCENTRICITY":"0.00021880","INCLINATION":"53.2129","BSTAR":"0.00027468000000","PERIOD":"95.438","MEAN_MOTION":"15.08828258","LAUNCH_DATE":"2021-11-13","MEAN_MOTION_DDOT":"0.0000000000000","PERIAPSIS":"538.268","TLE_LINE2":"2 49422  53.2129 101.2286 0002188  79.7354 280.3885 15.08828258 73437","TLE_LINE1":"1 49422U 21104Q   23070.47747105  .00004085  00000-0  27468-3 0  9993","EPOCH":"2023-03-11T11:27:33.498720","COUNTRY_CODE":"US","REF_FRAME":"TEME","REV_AT_EPOCH":"7343","CENTER_NAME":"EARTH","SITE":"AFETR","CLASSIFICATION_TYPE":"U","OBJECT_ID":"2021-104Q","OBJECT_NAME":"STARLINK-3161","EPHEMERIS_TYPE":"0","GP_ID":"227855783"},{"TLE_LINE2":"2 49423  53.2141 101.3127 0001496  93.1519 266.9644 15.08830048 73434","TLE_LINE1":"1 49423U 21104R   23070.45906450  .00003122  00000-0  21420-3 0  9995","EPOCH":"2023-03-11T11:01:03.172800","COUNTRY_CODE":"US","REF_FRAME":"TEME","REV_AT_EPOCH":"7343","CENTER_NAME":"EARTH","SITE":"AFETR","CLASSIFICATION_TYPE":"U","OBJECT_ID":"2021-104R","OBJECT_NAME":"STARLINK-3149","EPHEMERIS_TYPE":"0","GP_ID":"227856032","APOAPSIS":"540.811","MEAN_ANOMALY":"266.9644","FILE":"3857581","ARG_OF_PERICENTER":"93.1519","ELEMENT_SET_NO":"999","DECAY_DATE":null,"RCS_SIZE":"LARGE","SEMIMAJOR_AXIS":"6917.911","MEAN_MOTION_DOT":"0.00003122","NORAD_CAT_ID":"49423","TIME_SYSTEM":"UTC","MEAN_ELEMENT_THEORY":"SGP4","RA_OF_ASC_NODE":"101.3127","OBJECT_TYPE":"PAYLOAD","ECCENTRICITY":"0.00014960","BSTAR":"0.00021420000000","INCLINATION":"53.2141","PERIOD":"95.438","MEAN_MOTION":"15.08830048","LAUNCH_DATE":"2021-11-13","MEAN_MOTION_DDOT":"0.0000000000000","PERIAPSIS":"538.741"},{"APOAPSIS":"540.810","FILE":"3857847","MEAN_ANOMALY":"258.9852","ELEMENT_SET_NO":"999","ARG_OF_PERICENTER":"101.1310","DECAY_DATE":null,"RCS_SIZE":"LARGE","SEMIMAJOR_AXIS":"6917.904","TIME_SYSTEM":"UTC","MEAN_MOTION_DOT":"0.00010798","NORAD_CAT_ID":"49424","MEAN_ELEMENT_THEORY":"SGP4","RA_OF_ASC_NODE":"100.6652","OBJECT_TYPE":"PAYLOAD","ECCENTRICITY":"0.00015050","INCLINATION":"53.2148","BSTAR":"0.00069565000000","PERIOD":"95.438","MEAN_MOTION":"15.08832383","LAUNCH_DATE":"2021-11-13","MEAN_MOTION_DDOT":"0.0000000000000","PERIAPSIS":"538.728","TLE_LINE2":"2 49424  53.2148 100.6652 0001505 101.1310 258.9852 15.08832383 73455","TLE_LINE1":"1 49424U 21104S   23070.60258576  .00010798  00000-0  69565-3 0  9991","EPOCH":"2023-03-11T14:27:43.409664","COUNTRY_CODE":"US","REF_FRAME":"TEME","REV_AT_EPOCH":"7345","CENTER_NAME":"EARTH","SITE":"AFETR","CLASSIFICATION_TYPE":"U","OBJECT_ID":"2021-104S","EPHEMERIS_TYPE":"0","OBJECT_NAME":"STARLINK-3135","GP_ID":"227889344"},{"EPOCH":"2023-03-11T12:32:29.649696","REF_FRAME":"TEME","COUNTRY_CODE":"US","TLE_LINE2":"2 49425  53.2149 101.0345 0001531  84.9777 275.1390 15.08878229 73452","TLE_LINE1":"1 49425U 21104T   23070.52256539  .00023742  00000-0  15032-2 0  9992","GP_ID":"227855033","EPHEMERIS_TYPE":"0","OBJECT_NAME":"STARLINK-3139","OBJECT_ID":"2021-104T","SITE":"AFETR","CENTER_NAME":"EARTH","REV_AT_EPOCH":"7345","CLASSIFICATION_TYPE":"U","MEAN_ELEMENT_THEORY":"SGP4","NORAD_CAT_ID":"49425","MEAN_MOTION_DOT":"0.00023742","TIME_SYSTEM":"UTC","SEMIMAJOR_AXIS":"6917.764","RA_OF_ASC_NODE":"101.0345","ELEMENT_SET_NO":"999","ARG_OF_PERICENTER":"84.9777","FILE":"3857581","MEAN_ANOMALY":"275.1390","APOAPSIS":"540.688","RCS_SIZE":"LARGE","DECAY_DATE":null,"LAUNCH_DATE":"2021-11-13","MEAN_MOTION":"15.08878229","PERIOD":"95.435","PERIAPSIS":"538.569","MEAN_MOTION_DDOT":"0.0000000000000","ECCENTRICITY":"0.00015310","OBJECT_TYPE":"PAYLOAD","BSTAR":"0.00150320000000","INCLINATION":"53.2149"},{"TLE_LINE2":"2 49426  53.2146 101.2938 0001461 107.3930 252.7222 15.08837108 74528","TLE_LINE1":"1 49426U 21104U   23070.46274580  .00008296  00000-0  53874-3 0  9996","EPOCH":"2023-03-11T11:06:21.237120","COUNTRY_CODE":"US","REF_FRAME":"TEME","REV_AT_EPOCH":"7452","CENTER_NAME":"EARTH","SITE":"AFETR","CLASSIFICATION_TYPE":"U","OBJECT_ID":"2021-104U","EPHEMERIS_TYPE":"0","OBJECT_NAME":"STARLINK-3114","GP_ID":"227866266","APOAPSIS":"540.765","FILE":"3857811","MEAN_ANOMALY":"252.7222","ELEMENT_SET_NO":"999","ARG_OF_PERICENTER":"107.3930","DECAY_DATE":null,"RCS_SIZE":"LARGE","SEMIMAJOR_AXIS":"6917.889","MEAN_MOTION_DOT":"0.00008296","NORAD_CAT_ID":"49426","TIME_SYSTEM":"UTC","MEAN_ELEMENT_THEORY":"SGP4","RA_OF_ASC_NODE":"101.2938","OBJECT_TYPE":"PAYLOAD","ECCENTRICITY":"0.00014610","INCLINATION":"53.2146","BSTAR":"0.00053874000000","PERIOD":"95.438","MEAN_MOTION":"15.08837108","LAUNCH_DATE":"2021-11-13","MEAN_MOTION_DDOT":"0.0000000000000","PERIAPSIS":"538.744"},{"RCS_SIZE":"LARGE","DECAY_DATE":null,"ELEMENT_SET_NO":"999","ARG_OF_PERICENTER":"123.1725","FILE":"3857581","MEAN_ANOMALY":"236.9466","APOAPSIS":"541.228","RA_OF_ASC_NODE":"101.9380","MEAN_ELEMENT_THEORY":"SGP4","MEAN_MOTION_DOT":"-0.00003344","NORAD_CAT_ID":"49427","TIME_SYSTEM":"UTC","SEMIMAJOR_AXIS":"6917.928","BSTAR":"-0.00019215000000","INCLINATION":"53.2151","ECCENTRICITY":"0.00020740","OBJECT_TYPE":"PAYLOAD","PERIAPSIS":"538.358","MEAN_MOTION_DDOT":"0.0000000000000","LAUNCH_DATE":"2021-11-13","MEAN_MOTION":"15.08824351","PERIOD":"95.439","TLE_LINE1":"1 49427U 21104V   23070.31922396 -.00003344  00000-0 -19215-3 0  9998","TLE_LINE2":"2 49427  53.2151 101.9380 0002074 123.1725 236.9466 15.08824351 73420","REF_FRAME":"TEME","COUNTRY_CODE":"US","EPOCH":"2023-03-11T07:39:40.950144","CLASSIFICATION_TYPE":"U","SITE":"AFETR","CENTER_NAME":"EARTH","REV_AT_EPOCH":"7342","GP_ID":"227856533","OBJECT_NAME":"STARLINK-3131","EPHEMERIS_TYPE":"0","OBJECT_ID":"2021-104V"},{"OBJECT_TYPE":"PAYLOAD","ECCENTRICITY":"0.00012380","BSTAR":"0.00145750000000","INCLINATION":"53.2146","LAUNCH_DATE":"2021-11-13","PERIOD":"95.437","MEAN_MOTION":"15.08843427","MEAN_MOTION_DDOT":"0.0000000000000","PERIAPSIS":"538.878","ELEMENT_SET_NO":"999","ARG_OF_PERICENTER":"116.7955","APOAPSIS":"540.591","MEAN_ANOMALY":"243.3164","FILE":"3857847","DECAY_DATE":null,"RCS_SIZE":"LARGE","MEAN_ELEMENT_THEORY":"SGP4","SEMIMAJOR_AXIS":"6917.870","NORAD_CAT_ID":"49428","MEAN_MOTION_DOT":"0.00022986","TIME_SYSTEM":"UTC","RA_OF_ASC_NODE":"100.7933","SITE":"AFETR","REV_AT_EPOCH":"7346","CENTER_NAME":"EARTH","CLASSIFICATION_TYPE":"U","GP_ID":"227888845","OBJECT_ID":"2021-104W","OBJECT_NAME":"STARLINK-3121","EPHEMERIS_TYPE":"0","TLE_LINE2":"2 49428  53.2146 100.7933 0001238 116.7955 243.3164 15.08843427 73466","TLE_LINE1":"1 49428U 21104W   23070.57410290  .00022986  00000-0  14575-2 0  9996","EPOCH":"2023-03-11T13:46:42.490560","REF_FRAME":"TEME","COUNTRY_CODE":"US"}];
